OBJECT_NAME,OBJECT_ID,EPOCH,MEAN_MOTION,ECCENTRICITY,INCLINATION,RA_OF_ASC_NODE,ARG_OF_PERICENTER,MEAN_ANOMALY,EPHEMERIS_TYPE,CLASSIFICATION_TYPE,NORAD_CAT_ID,ELEMENT_SET_NO,REV_AT_EPOCH,BSTAR,MEAN_MOTION_DOT,MEAN_MOTION_DDOT
CUTE-1 (CO-55),2003-031E,2026-06-16T23:12:22.593024,14.24335593,.0009524,98.6736,176.5285,178.6032,181.5176,0,U,27844,999,19164,.11765E-3,.228E-5,0
CUBESAT XI-IV (CO-57),2003-031J,2026-06-16T22:55:35.785056,14.23620738,.0009009,98.6766,176.2299,197.6805,162.4061,0,U,27848,999,19134,.10575E-3,.197E-5,0
CUBESAT XI-V,2005-043F,2026-06-16T09:12:06.602400,14.72629782,.00135859,98.2985,322.9884,203.3717,156.6874,0,U,28895,999,10163,.19648745E-3,.12E-4,0
CUTE-1.7+APD II (CO-65),2008-021C,2026-06-17T04:22:46.644384,15.09451626,.0009757,97.8272,149.6008,39.0823,321.1109,0,U,32785,999,98519,.26011E-3,.41E-4,0
CANX-2,2008-021H,2026-06-16T21:20:51.523008,15.05616425,.0011434,97.8636,147.6611,51.4391,308.7858,0,U,32790,999,98476,.27297E-3,.3878E-4,0
SEEDS II (CO-66),2008-021J,2026-06-16T22:33:11.452032,15.32745063,.000109,97.7513,165.8255,4.6274,355.4977,0,U,32791,999,98725,.50504E-3,.15903E-3,0
SWISSCUBE,2009-051B,2026-06-16T13:16:10.943616,14.62480577,.0005921,98.4037,75.4301,205.2603,154.8309,0,U,35932,999,88906,.16935E-3,.809E-5,0
BEESAT-1,2009-051C,2026-06-16T23:20:43.651680,14.61720245,.0004211,98.3964,75.4933,217.7177,142.3728,0,U,35933,999,88915,.14519E-3,.674E-5,0
ITUPSAT1,2009-051E,2026-06-16T16:32:42.236736,14.60440072,.0006243,98.4049,74.3979,235.8160,124.2448,0,U,35935,999,88866,.13815E-3,.621E-5,0
TISAT 1,2010-035E,2026-06-16T22:06:24.532128,15.31700616,.0001362,98.0714,114.4464,167.9890,192.1382,0,U,36799,999,86766,.56437E-3,.17209E-3,0
AEROCUBE 4.5A,2012-048K,2026-06-16T23:22:43.797792,15.96100831,.0019536,64.6234,27.6641,224.8957,135.0626,0,U,38767,999,37262,.1017E-2,.429029E-2,.81714E-4
STRAND-1,2013-009E,2026-06-17T01:20:39.109344,14.37163232,.0007721,98.3921,348.2936,225.7005,134.3549,0,U,39090,999,69704,.84356E-4,.208E-5,0
BRITE-AUSTRIA,2013-009F,2026-06-16T23:58:48.737280,14.36542078,.0009143,98.3994,347.4395,237.0662,122.9646,0,U,39091,999,69702,.60603E-4,.135E-5,0
NEE-01 PEGASO,2013-018B,2026-06-17T03:09:32.525280,14.93659532,.0013099,98.1222,312.2794,159.5511,200.6235,0,U,39151,999,71069,.2171E-3,.2236E-4,0
POPACS 2,2013-055E,2026-06-17T04:14:09.085056,14.91210375,.0416853,80.9906,144.2043,193.8061,165.1479,0,U,39269,999,66321,.18529E-3,.10961E-3,0
POPACS 3,2013-055F,2026-06-16T21:55:09.986592,14.56118366,.0552172,81.0011,229.4846,70.8295,295.1804,0,U,39270,999,63851,.19719E-3,.8396E-4,0
ZACUBE-1 (TSHEPISOSAT),2013-066B,2026-06-17T03:22:33.461184,15.01188974,.0040796,97.8081,130.4773,247.8306,111.8586,0,U,39417,999,68072,.2046E-3,.2606E-4,0
WNISAT-1,2013-066H,2026-06-17T03:25:09.611040,14.58062098,.0161966,97.7201,317.3019,231.7318,126.9218,0,U,39423,999,66672,.13888E-3,.714E-5,0
TRITON-1,2013-066M,2026-06-17T03:51:12.486816,14.81704769,.0088497,97.8253,77.9691,234.0093,125.2892,0,U,39427,999,67408,.15438E-3,.1243E-4,0
GOMX-1,2013-066Q,2026-06-17T04:27:47.540160,14.69459629,.01302,97.6476,8.6487,77.5310,284.0429,0,U,39430,999,66991,.2075E-3,.1349E-4,0
CUBEBUG-2 (LO-74),2013-066AA,2026-06-17T03:07:26.876352,14.93761629,.0058392,97.8909,117.1080,29.2654,331.1816,0,U,39440,999,67698,.37158E-3,.4009E-4,0
NEE-02 KRYSAOR,2013-066AB,2026-06-15T12:38:09.714912,14.86612031,.00676896,97.8896,105.7532,75.5443,285.3271,0,U,39441,999,67595,.23065442E-3,.2075E-4,0
FUNCUBE-1 (AO-73),2013-066AE,2026-06-17T04:32:20.397408,15.09490131,.0035625,97.8278,139.6350,200.8466,159.1312,0,U,39444,999,67966,.31739E-3,.5092E-4,0
UWE-3,2013-066AG,2026-06-17T03:34:17.373216,14.97024580,.0047554,97.8697,124.2222,321.2841,38.4975,0,U,39446,999,67757,.31825E-3,.3686E-4,0
BRITE-CA1 (TORONTO),2014-033L,2026-06-17T02:32:14.956224,14.72676636,.0077213,97.9739,297.0351,277.2847,81.9589,0,U,40020,999,64220,.96897E-4,.592E-5,0
DUCHIFAT-1,2014-033M,2026-06-17T02:03:16.411104,15.64575667,.0003017,98.0464,227.2320,117.8101,242.3462,0,U,40021,999,65573,.89449E-3,.86906E-3,0
NANOSATC-BR1,2014-033Q,2026-06-17T01:47:37.988736,15.31454788,.0004408,98.0715,200.4526,162.8520,197.2869,0,U,40024,999,65396,.42854E-3,.12941E-3,0
QB50P1,2014-033R,2026-06-17T00:26:17.797920,15.18259399,.0007771,98.0959,179.1525,215.7704,144.3009,0,U,40025,999,65300,.32676E-3,.6622E-4,0
QB50P2,2014-033Y,2026-06-16T23:13:56.610048,15.15156257,.0007998,98.0747,164.8345,163.7148,196.4341,0,U,40032,999,65263,.28911E-3,.5351E-4,0
PERSEUS-M2,2014-033AD,2026-06-17T03:07:15.654720,14.95508083,.0010759,97.9961,118.6695,304.2710,55.7490,0,U,40037,999,65077,.1113E-3,.1172E-4,0
